{
  "type": "FeatureCollection",
  "features": [
    {
      "type": "Feature",
      "properties": { "name": "Quận 1", "name_en": "District 1" },
      "geometry": {
        "type": "Polygon",
        "coordinates": [[
          [106.6962, 10.7757], [106.7008, 10.7813], [106.7065, 10.7809],
          [106.7099, 10.7753], [106.7088, 10.7694], [106.7053, 10.7656],
          [106.7002, 10.7641], [106.6955, 10.7659], [106.6936, 10.7706],
          [106.6962, 10.7757]
        ]]
      }
    },
    {
      "type": "Feature",
      "properties": { "name": "Quận 2", "name_en": "District 2" },
      "geometry": {
        "type": "Polygon",
        "coordinates": [[
          [106.7099, 10.7753], [106.7065, 10.7809], [106.7100, 10.7870],
          [106.7200, 10.7950], [106.7380, 10.8010], [106.7600, 10.7970],
          [106.7750, 10.7850], [106.7730, 10.7680], [106.7580, 10.7560],
          [106.7380, 10.7490], [106.7200, 10.7570], [106.7099, 10.7753]
        ]]
      }
    },
    {
      "type": "Feature",
      "properties": { "name": "Quận 3", "name_en": "District 3" },
      "geometry": {
        "type": "Polygon",
        "coordinates": [[
          [106.6822, 10.7825], [106.6870, 10.7895], [106.6962, 10.7890],
          [106.7008, 10.7813], [106.6962, 10.7757], [106.6936, 10.7706],
          [106.6862, 10.7715], [106.6810, 10.7760], [106.6822, 10.7825]
        ]]
      }
    },
    {
      "type": "Feature",
      "properties": { "name": "Quận 4", "name_en": "District 4" },
      "geometry": {
        "type": "Polygon",
        "coordinates": [[
          [106.6955, 10.7659], [106.7002, 10.7641], [106.7053, 10.7656],
          [106.7088, 10.7694], [106.7099, 10.7560], [106.7040, 10.7490],
          [106.6950, 10.7460], [106.6870, 10.7510], [106.6880, 10.7590],
          [106.6955, 10.7659]
        ]]
      }
    },
    {
      "type": "Feature",
      "properties": { "name": "Quận 5", "name_en": "District 5" },
      "geometry": {
        "type": "Polygon",
        "coordinates": [[
          [106.6610, 10.7540], [106.6680, 10.7620], [106.6810, 10.7690],
          [106.6862, 10.7715], [106.6936, 10.7706], [106.6955, 10.7659],
          [106.6880, 10.7590], [106.6870, 10.7510], [106.6780, 10.7450],
          [106.6660, 10.7450], [106.6610, 10.7540]
        ]]
      }
    },
    {
      "type": "Feature",
      "properties": { "name": "Quận 6", "name_en": "District 6" },
      "geometry": {
        "type": "Polygon",
        "coordinates": [[
          [106.6310, 10.7460], [106.6410, 10.7540], [106.6610, 10.7540],
          [106.6660, 10.7450], [106.6600, 10.7340], [106.6470, 10.7290],
          [106.6340, 10.7320], [106.6285, 10.7390], [106.6310, 10.7460]
        ]]
      }
    },
    {
      "type": "Feature",
      "properties": { "name": "Quận 7", "name_en": "District 7" },
      "geometry": {
        "type": "Polygon",
        "coordinates": [[
          [106.6870, 10.7510], [106.6950, 10.7460], [106.7040, 10.7490],
          [106.7180, 10.7400], [106.7300, 10.7200], [106.7200, 10.7020],
          [106.7020, 10.6890], [106.6820, 10.6900], [106.6660, 10.7030],
          [106.6590, 10.7230], [106.6680, 10.7420], [106.6870, 10.7510]
        ]]
      }
    },
    {
      "type": "Feature",
      "properties": { "name": "Quận 8", "name_en": "District 8" },
      "geometry": {
        "type": "Polygon",
        "coordinates": [[
          [106.6285, 10.7390], [106.6340, 10.7320], [106.6470, 10.7290],
          [106.6600, 10.7340], [106.6660, 10.7450], [106.6780, 10.7450],
          [106.6720, 10.7280], [106.6620, 10.7110], [106.6430, 10.7060],
          [106.6240, 10.7140], [106.6220, 10.7290], [106.6285, 10.7390]
        ]]
      }
    },
    {
      "type": "Feature",
      "properties": { "name": "Quận 9", "name_en": "District 9" },
      "geometry": {
        "type": "Polygon",
        "coordinates": [[
          [106.7730, 10.7680], [106.7750, 10.7850], [106.7920, 10.8230],
          [106.8230, 10.8380], [106.8540, 10.8320], [106.8720, 10.8100],
          [106.8640, 10.7730], [106.8370, 10.7510], [106.7980, 10.7520],
          [106.7730, 10.7680]
        ]]
      }
    },
    {
      "type": "Feature",
      "properties": { "name": "Quận 10", "name_en": "District 10" },
      "geometry": {
        "type": "Polygon",
        "coordinates": [[
          [106.6620, 10.7720], [106.6690, 10.7820], [106.6810, 10.7810],
          [106.6862, 10.7715], [106.6810, 10.7690], [106.6740, 10.7630],
          [106.6680, 10.7620], [106.6620, 10.7620], [106.6600, 10.7680],
          [106.6620, 10.7720]
        ]]
      }
    },
    {
      "type": "Feature",
      "properties": { "name": "Quận 11", "name_en": "District 11" },
      "geometry": {
        "type": "Polygon",
        "coordinates": [[
          [106.6430, 10.7650], [106.6510, 10.7750], [106.6620, 10.7720],
          [106.6620, 10.7620], [106.6560, 10.7560], [106.6460, 10.7540],
          [106.6410, 10.7540], [106.6430, 10.7650]
        ]]
      }
    },
    {
      "type": "Feature",
      "properties": { "name": "Quận 12", "name_en": "District 12" },
      "geometry": {
        "type": "Polygon",
        "coordinates": [[
          [106.6290, 10.8380], [106.6590, 10.8600], [106.6910, 10.8620],
          [106.7110, 10.8410], [106.7040, 10.8100], [106.6730, 10.7980],
          [106.6450, 10.8080], [106.6290, 10.8380]
        ]]
      }
    },
    {
      "type": "Feature",
      "properties": { "name": "Bình Thạnh", "name_en": "Binh Thanh" },
      "geometry": {
        "type": "Polygon",
        "coordinates": [[
          [106.6962, 10.7890], [106.7008, 10.7813], [106.7065, 10.7809],
          [106.7100, 10.7870], [106.7180, 10.8010], [106.7380, 10.8010],
          [106.7400, 10.7890], [106.7220, 10.7820], [106.7100, 10.7870],
          [106.7008, 10.7813], [106.6962, 10.7890]
        ]]
      }
    },
    {
      "type": "Feature",
      "properties": { "name": "Gò Vấp", "name_en": "Go Vap" },
      "geometry": {
        "type": "Polygon",
        "coordinates": [[
          [106.6590, 10.8080], [106.6730, 10.8400], [106.6910, 10.8420],
          [106.7040, 10.8200], [106.7110, 10.8010], [106.7040, 10.8100],
          [106.6910, 10.7970], [106.6822, 10.7970], [106.6700, 10.8010],
          [106.6590, 10.8080]
        ]]
      }
    },
    {
      "type": "Feature",
      "properties": { "name": "Phú Nhuận", "name_en": "Phu Nhuan" },
      "geometry": {
        "type": "Polygon",
        "coordinates": [[
          [106.6822, 10.7825], [106.6862, 10.7895], [106.6930, 10.7950],
          [106.6980, 10.7920], [106.7008, 10.7813], [106.6962, 10.7890],
          [106.6870, 10.7895], [106.6822, 10.7825]
        ]]
      }
    },
    {
      "type": "Feature",
      "properties": { "name": "Tân Bình", "name_en": "Tan Binh" },
      "geometry": {
        "type": "Polygon",
        "coordinates": [[
          [106.6390, 10.8010], [106.6510, 10.8110], [106.6680, 10.8050],
          [106.6822, 10.7970], [106.6910, 10.7970], [106.6822, 10.7825],
          [106.6810, 10.7760], [106.6700, 10.7820], [106.6600, 10.7830],
          [106.6510, 10.7750], [106.6430, 10.7820], [106.6350, 10.7910],
          [106.6390, 10.8010]
        ]]
      }
    },
    {
      "type": "Feature",
      "properties": { "name": "Tân Phú", "name_en": "Tan Phu" },
      "geometry": {
        "type": "Polygon",
        "coordinates": [[
          [106.6170, 10.7810], [106.6290, 10.7970], [106.6390, 10.8010],
          [106.6430, 10.7820], [106.6350, 10.7720], [106.6250, 10.7700],
          [106.6170, 10.7700], [106.6140, 10.7760], [106.6170, 10.7810]
        ]]
      }
    },
    {
      "type": "Feature",
      "properties": { "name": "Bình Tân", "name_en": "Binh Tan" },
      "geometry": {
        "type": "Polygon",
        "coordinates": [[
          [106.5940, 10.7520], [106.6070, 10.7780], [106.6170, 10.7810],
          [106.6140, 10.7760], [106.6090, 10.7640], [106.5980, 10.7570],
          [106.5880, 10.7530], [106.5850, 10.7480], [106.5940, 10.7520]
        ]]
      }
    },
    {
      "type": "Feature",
      "properties": { "name": "Thủ Đức", "name_en": "Thu Duc City" },
      "geometry": {
        "type": "Polygon",
        "coordinates": [[
          [106.7100, 10.7870], [106.7200, 10.7950], [106.7380, 10.8010],
          [106.7400, 10.7890], [106.7220, 10.7820], [106.7600, 10.7970],
          [106.7750, 10.7850], [106.7920, 10.8230], [106.8230, 10.8380],
          [106.8540, 10.8320], [106.8720, 10.8100], [106.8530, 10.7730],
          [106.8070, 10.8080], [106.7730, 10.7680], [106.7580, 10.7560],
          [106.7380, 10.7490], [106.7200, 10.7570], [106.7099, 10.7753],
          [106.7100, 10.7870]
        ]]
      }
    },
    {
      "type": "Feature",
      "properties": { "name": "Bình Chánh", "name_en": "Binh Chanh" },
      "geometry": {
        "type": "Polygon",
        "coordinates": [[
          [106.5570, 10.7200], [106.5880, 10.7530], [106.5940, 10.7520],
          [106.6160, 10.7500], [106.6220, 10.7290], [106.6220, 10.7140],
          [106.6080, 10.6810], [106.5800, 10.6590], [106.5460, 10.6670],
          [106.5330, 10.6980], [106.5570, 10.7200]
        ]]
      }
    },
    {
      "type": "Feature",
      "properties": { "name": "Nhà Bè", "name_en": "Nha Be" },
      "geometry": {
        "type": "Polygon",
        "coordinates": [[
          [106.6590, 10.7230], [106.6820, 10.6900], [106.7020, 10.6890],
          [106.7200, 10.7020], [106.7300, 10.6820], [106.7100, 10.6460],
          [106.6870, 10.6350], [106.6560, 10.6490], [106.6440, 10.6710],
          [106.6420, 10.6970], [106.6590, 10.7230]
        ]]
      }
    },
    {
      "type": "Feature",
      "properties": { "name": "Hóc Môn", "name_en": "Hoc Mon" },
      "geometry": {
        "type": "Polygon",
        "coordinates": [[
          [106.5880, 10.8340], [106.6180, 10.8750], [106.6590, 10.8950],
          [106.6820, 10.8810], [106.6910, 10.8620], [106.6590, 10.8600],
          [106.6290, 10.8380], [106.6080, 10.8250], [106.5880, 10.8340]
        ]]
      }
    },
    {
      "type": "Feature",
      "properties": { "name": "Củ Chi", "name_en": "Cu Chi" },
      "geometry": {
        "type": "Polygon",
        "coordinates": [[
          [106.4600, 10.9600], [106.5400, 11.0350], [106.6380, 11.0080],
          [106.6890, 10.9460], [106.6820, 10.8810], [106.6590, 10.8950],
          [106.6180, 10.8750], [106.5620, 10.8860], [106.4890, 10.9010],
          [106.4600, 10.9600]
        ]]
      }
    },
    {
      "type": "Feature",
      "properties": { "name": "Cần Giờ", "name_en": "Can Gio" },
      "geometry": {
        "type": "Polygon",
        "coordinates": [[
          [106.7980, 10.5420], [106.9050, 10.5080], [107.0240, 10.3710],
          [107.0680, 10.2140], [106.9620, 10.1540], [106.8040, 10.1990],
          [106.7020, 10.3040], [106.6930, 10.4560], [106.7980, 10.5420]
        ]]
      }
    }
  ]
}
